{
  "type": "FeatureCollection",
  "features": [
    {
      "type": "Feature",
      "properties": {
        "norad_id": 37008,
        "name": "FENGYUN 1C DEB",
        "group": "fengyun-1c-debris",
        "lat": 30.382814199855897,
        "lon": -63.29507715997645,
        "alt_km": 863.5344601911365,
        "timestamp": "2025-12-18T08:58:43.700404+00:00",
        "meta_object_name": "FENGYUN 1C DEB",
        "meta_object_id": "1999-025ECQ",
        "meta_epoch": "2025-12-16T13:37:40.846368",
        "meta_mean_motion": 14.07946281,
        "meta_eccentricity": 0.00622637,
        "meta_inclination": 99.1344,
        "meta_ra_of_asc_node": 109.4653,
        "meta_arg_of_pericenter": 242.9827,
        "meta_mean_anomaly": 116.4976,
        "meta_ephemeris_type": 0,
        "meta_classification_type": "U",
        "meta_norad_cat_id": 37008,
        "meta_element_set_no": 999,
        "meta_rev_at_epoch": 60368,
        "meta_bstar": 0.00095767269,
        "meta_mean_motion_dot": 1.61e-05,
        "meta_mean_motion_ddot": 0,
        "tle_line1": "1 37008U 99025ECQ 25350.56783387  .00001610  00000+0  95767-3 0  9999",
        "tle_line2": "2 37008  99.1344 109.4653 0062263 242.9827 116.4976 14.07946281603680"
      },
      "geometry": {
        "type": "Point",
        "coordinates": [
          -63.29507715997645,
          30.382814199855897
        ]
      }
    },
    {
      "type": "Feature",
      "properties": {
        "norad_id": 37017,
        "name": "FENGYUN 1C DEB",
        "group": "fengyun-1c-debris",
        "lat": 60.05435721986701,
        "lon": -78.53091581491461,
        "alt_km": 685.4502267718226,
        "timestamp": "2025-12-18T08:58:43.700414+00:00",
        "meta_object_name": "FENGYUN 1C DEB",
        "meta_object_id": "1999-025ECZ",
        "meta_epoch": "2025-12-17T02:42:23.641632",
        "meta_mean_motion": 14.40762673,
        "meta_eccentricity": 0.0282027,
        "meta_inclination": 98.7904,
        "meta_ra_of_asc_node": 295.7523,
        "meta_arg_of_pericenter": 352.2584,
        "meta_mean_anomaly": 7.4295,
        "meta_ephemeris_type": 0,
        "meta_classification_type": "U",
        "meta_norad_cat_id": 37017,
        "meta_element_set_no": 999,
        "meta_rev_at_epoch": 61224,
        "meta_bstar": 0.0015677447,
        "meta_mean_motion_dot": 8.005e-05,
        "meta_mean_motion_ddot": 0,
        "tle_line1": "1 37017U 99025ECZ 25351.11277363  .00008005  00000+0  15677-2 0  9999",
        "tle_line2": "2 37017  98.7904 295.7523 0282027 352.2584   7.4295 14.40762673612242"
      },
      "geometry": {
        "type": "Point",
        "coordinates": [
          -78.53091581491461,
          60.05435721986701
        ]
      }
    },
    {
      "type": "Feature",
      "properties": {
        "norad_id": 37021,
        "name": "FENGYUN 1C DEB",
        "group": "fengyun-1c-debris",
        "lat": -8.180030602445303,
        "lon": 10.0803666542928,
        "alt_km": 843.0837022652622,
        "timestamp": "2025-12-18T08:58:43.700424+00:00",
        "meta_object_name": "FENGYUN 1C DEB",
        "meta_object_id": "1999-025EDD",
        "meta_epoch": "2025-12-15T19:48:38.624256",
        "meta_mean_motion": 14.32286446,
        "meta_eccentricity": 0.01758098,
        "meta_inclination": 98.3862,
        "meta_ra_of_asc_node": 6.3993,
        "meta_arg_of_pericenter": 242.5776,
        "meta_mean_anomaly": 293.4612,
        "meta_ephemeris_type": 0,
        "meta_classification_type": "U",
        "meta_norad_cat_id": 37021,
        "meta_element_set_no": 999,
        "meta_rev_at_epoch": 70098,
        "meta_bstar": 0.00048256667,
        "meta_mean_motion_dot": 1.497e-05,
        "meta_mean_motion_ddot": 0,
        "tle_line1": "1 37021U 99025EDD 25349.82544704  .00001497  00000+0  48257-3 0  9994",
        "tle_line2": "2 37021  98.3862   6.3993 0175809 242.5776 293.4612 14.32286446700985"
      },
      "geometry": {
        "type": "Point",
        "coordinates": [
          10.0803666542928,
          -8.180030602445303
        ]
      }
    },
    {
      "type": "Feature",
      "properties": {
        "norad_id": 37028,
        "name": "FENGYUN 1C DEB",
        "group": "fengyun-1c-debris",
        "lat": 13.470903706724846,
        "lon": 82.60773546020084,
        "alt_km": 814.3190106992697,
        "timestamp": "2025-12-18T08:58:43.700439+00:00",
        "meta_object_name": "FENGYUN 1C DEB",
        "meta_object_id": "1999-025EDL",
        "meta_epoch": "2025-12-14T13:03:45.984672",
        "meta_mean_motion": 14.22752179,
        "meta_eccentricity": 0.0033411,
        "meta_inclination": 99.2457,
        "meta_ra_of_asc_node": 256.3546,
        "meta_arg_of_pericenter": 93.2394,
        "meta_mean_anomaly": 267.2605,
        "meta_ephemeris_type": 0,
        "meta_classification_type": "U",
        "meta_norad_cat_id": 37028,
        "meta_element_set_no": 999,
        "meta_rev_at_epoch": 60501,
        "meta_bstar": 0.0016622383,
        "meta_mean_motion_dot": 3.701e-05,
        "meta_mean_motion_ddot": 0,
        "tle_line1": "1 37028U 99025EDL 25348.54428223  .00003701  00000+0  16622-2 0  9996",
        "tle_line2": "2 37028  99.2457 256.3546 0033411  93.2394 267.2605 14.22752179605011"
      },
      "geometry": {
        "type": "Point",
        "coordinates": [
          82.60773546020084,
          13.470903706724846
        ]
      }
    },
    {
      "type": "Feature",
      "properties": {
        "norad_id": 37036,
        "name": "FENGYUN 1C DEB",
        "group": "fengyun-1c-debris",
        "lat": -74.10539657781744,
        "lon": 132.27977469893548,
        "alt_km": 960.1640315983441,
        "timestamp": "2025-12-18T08:58:43.700461+00:00",
        "meta_object_name": "FENGYUN 1C DEB",
        "meta_object_id": "1999-025EDU",
        "meta_epoch": "2025-12-16T06:08:42.790848",
        "meta_mean_motion": 14.03573579,
        "meta_eccentricity": 0.01241319,
        "meta_inclination": 98.7147,
        "meta_ra_of_asc_node": 342.8405,
        "meta_arg_of_pericenter": 45.4254,
        "meta_mean_anomaly": 315.6966,
        "meta_ephemeris_type": 0,
        "meta_classification_type": "U",
        "meta_norad_cat_id": 37036,
        "meta_element_set_no": 999,
        "meta_rev_at_epoch": 63797,
        "meta_bstar": 0.00035913952,
        "meta_mean_motion_dot": 5.62e-06,
        "meta_mean_motion_ddot": 0,
        "tle_line1": "1 37036U 99025EDU 25350.25605082  .00000562  00000+0  35914-3 0  9994",
        "tle_line2": "2 37036  98.7147 342.8405 0124131  45.4254 315.6966 14.03573579637971"
      },
      "geometry": {
        "type": "Point",
        "coordinates": [
          132.27977469893548,
          -74.10539657781744
        ]
      }
    },
    {
      "type": "Feature",
      "properties": {
        "norad_id": 37044,
        "name": "FENGYUN 1C DEB",
        "group": "fengyun-1c-debris",
        "lat": 79.87101401566906,
        "lon": -19.79148159539545,
        "alt_km": 745.5064664658994,
        "timestamp": "2025-12-18T08:58:43.700475+00:00",
        "meta_object_name": "FENGYUN 1C DEB",
        "meta_object_id": "1999-025EEC",
        "meta_epoch": "2025-12-17T00:58:56.109216",
        "meta_mean_motion": 13.7088459,
        "meta_eccentricity": 0.05081309,
        "meta_inclination": 98.9658,
        "meta_ra_of_asc_node": 96.8685,
        "meta_arg_of_pericenter": 149.9849,
        "meta_mean_anomaly": 213.1489,
        "meta_ephemeris_type": 0,
        "meta_classification_type": "U",
        "meta_norad_cat_id": 37044,
        "meta_element_set_no": 999,
        "meta_rev_at_epoch": 83917,
        "meta_bstar": 0.0024723878,
        "meta_mean_motion_dot": 5.519e-05,
        "meta_mean_motion_ddot": 0,
        "tle_line1": "1 37044U 99025EEC 25351.04092719  .00005519  00000+0  24724-2 0  9991",
        "tle_line2": "2 37044  98.9658  96.8685 0508130 149.9849 213.1489 13.70884590839179"
      },
      "geometry": {
        "type": "Point",
        "coordinates": [
          -19.79148159539545,
          79.87101401566906
        ]
      }
    },
    {
      "type": "Feature",
      "properties": {
        "norad_id": 37046,
        "name": "FENGYUN 1C DEB",
        "group": "fengyun-1c-debris",
        "lat": 28.60847328464352,
        "lon": -168.81713272573543,
        "alt_km": 834.3307528030364,
        "timestamp": "2025-12-18T08:58:43.700486+00:00",
        "meta_object_name": "FENGYUN 1C DEB",
        "meta_object_id": "1999-025EEE",
        "meta_epoch": "2025-12-13T20:24:25.794720",
        "meta_mean_motion": 14.24846266,
        "meta_eccentricity": 0.00488893,
        "meta_inclination": 98.5444,
        "meta_ra_of_asc_node": 2.0767,
        "meta_arg_of_pericenter": 303.8823,
        "meta_mean_anomaly": 55.7711,
        "meta_ephemeris_type": 0,
        "meta_classification_type": "U",
        "meta_norad_cat_id": 37046,
        "meta_element_set_no": 999,
        "meta_rev_at_epoch": 64197,
        "meta_bstar": 0.00095077436,
        "meta_mean_motion_dot": 2.204e-05,
        "meta_mean_motion_ddot": 0,
        "tle_line1": "1 37046U 99025EEE 25347.85029855  .00002204  00000+0  95077-3 0  9996",
        "tle_line2": "2 37046  98.5444   2.0767 0048889 303.8823  55.7711 14.24846266641978"
      },
      "geometry": {
        "type": "Point",
        "coordinates": [
          -168.81713272573543,
          28.60847328464352
        ]
      }
    }
  ]
}